{"type":"FeatureCollection","features":[{"type":"Feature","properties":{"id":"ZAB","name":"ALBUQUERQUE","label":"Albuquerque Center","altitude":"HIGH"},"geometry":{"type":"Polygon","coordinates":[[[-111.84166666,35.76666666],[-110.23333333,35.7],[-108.21666666,36.03333333],[-107.46666666,36.2],[-106.08333333,36.71666666],[-105.0,36.71666666],[-102.55,37.5],[-101.75,36.5],[-100.0,35.82916666],[-100.0,35.33333333],[-100.31666666,34.86666666],[-100.75,34.46666666],[-102.0,34.6],[-102.325,34.55],[-102.8,34.31666666],[-103.36666666,33.775],[-103.69166666,33.40277777],[-103.8,33.38333333],[-103.8,33.0],[-103.93333333,32.46666666],[-103.8,32.03333333],[-103.33333333,31.65],[-102.15,31.28333333],[-102.55833333,29.76666666],[-102.675,29.725],[-102.84027777,29.36111111],[-102.88333333,29.35833333],[-102.86666666,29.21666666],[-102.98333333,29.18333333],[-103.15,28.95],[-103.28555555,28.97666666],[-103.45,29.06666666],[-103.55,29.15],[-103.71666666,29.18055555],[-103.78333333,29.26527777],[-104.0,29.30555555],[-104.15,29.4],[-104.21666666,29.48333333],[-104.35,29.53333333],[-104.51666666,29.65],[-104.7,30.0],[-104.68333333,30.15],[-104.83333333,30.36666666],[-104.98333333,30.68333333],[-105.31666666,30.83333333],[-105.55,31.0],[-105.96666666,31.33333333],[-106.2,31.46666666],[-106.38333333,31.73333333],[-106.5,31.75],[-106.53333333,31.78333333],[-108.2,31.78333333],[-108.2,31.33333333],[-111.08333333,31.33333333],[-112.0,31.63333333],[-113.50833333,32.1],[-113.51276944,32.11622777],[-113.68472222,32.7375],[-114.0,32.68333333],[-114.0,33.4],[-114.0,34.66666666],[-113.7,34.86666666],[-113.61666666,34.91666666],[-112.92777777,35.25555555],[-112.66666666,35.38333333],[-112.15305555,35.39666666],[-112.0,35.4],[-111.84166666,35.76666666]]]}},{"type":"Feature","properties":{"id":"ZAB","name":"ALBUQUERQUE","label":"Albuquerque Center","altitude":"LOW"},"geometry":{"type":"Polygon","coordinates":[[[-111.84166666,35.76666666],[-110.23333333,35.7],[-108.21666666,36.03333333],[-107.46666666,36.2],[-106.08333333,36.71666666],[-105.0,36.71666666],[-102.55,37.5],[-101.75,36.5],[-100.0,35.82916666],[-100.0,35.33333333],[-100.31666666,34.86666666],[-100.75,34.46666666],[-102.0,34.6],[-102.325,34.55],[-102.8,34.31666666],[-103.36666666,33.775],[-103.69166666,33.40277777],[-103.8,33.38333333],[-103.8,33.0],[-103.93333333,32.46666666],[-103.8,32.03333333],[-103.33333333,31.65],[-102.15,31.28333333],[-102.55833333,29.76666666],[-102.675,29.725],[-102.84027777,29.36111111],[-102.88333333,29.35833333],[-102.86666666,29.21666666],[-102.98333333,29.18333333],[-103.15,28.95],[-103.28555555,28.97666666],[-103.45,29.06666666],[-103.55,29.15],[-103.71666666,29.18055555],[-103.78333333,29.26527777],[-104.0,29.30555555],[-104.15,29.4],[-104.21666666,29.48333333],[-104.35,29.53333333],[-104.51666666,29.65],[-104.7,30.0],[-104.68333333,30.15],[-104.83333333,30.36666666],[-104.98333333,30.68333333],[-105.31666666,30.83333333],[-105.55,31.0],[-105.96666666,31.33333333],[-106.2,31.46666666],[-106.38333333,31.73333333],[-106.5,31.75],[-106.53333333,31.78333333],[-108.2,31.78333333],[-108.2,31.33333333],[-111.08333333,31.33333333],[-112.0,31.63333333],[-113.50833333,32.1],[-113.51276944,32.11622777],[-113.68472222,32.7375],[-114.0,32.68333333],[-114.0,33.4],[-114.0,34.66666666],[-113.7,34.86666666],[-113.61666666,34.91666666],[-112.92777777,35.25555555],[-112.66666666,35.38333333],[-112.15305555,35.39666666],[-112.0,35.4],[-111.84166666,35.76666666]]]}},{"type":"Feature","properties":{"id":"ZAK","name":"OAKLAND OCEANIC ARTCC","label":"Oakland Oceanic ARTCC","altitude":"UNLIMITED"},"geometry":{"type":"Polygon","coordinates":[[[130.0,21.0],[130.0,21.0],[151.0,21.0],[155.0,21.0],[155.0,23.5275],[155.0,27.0],[161.08055555,27.0],[165.0,27.0],[165.0,29.0],[165.0,43.0],[165.0,43.0],[162.91666666,45.7],[162.91666666,45.7],[-176.56666666,50.13333333],[-176.56666666,50.13333333],[-167.81666666,51.4],[-167.81666666,51.4],[-160.0,53.5],[-160.0,53.5],[-153.0,56.0],[-153.0,56.0],[-151.75,56.76166666],[-151.75,56.76166666],[-137.0,53.3675],[-137.0,53.3675],[-135.0,52.71666666],[-135.0,52.71666666],[-133.75,51.0],[-133.75,51.0],[-128.0,48.33333333],[-128.0,48.33333333],[-127.925,48.16666666],[-127.925,48.16666666],[-126.5,45.0],[-126.5,45.0],[-126.9,40.98333333],[-126.9,40.98333333],[-127.0,40.83333333],[-127.0,40.83333333],[-127.0,37.50638888],[-127.0,37.50638888],[-126.93333333,36.46194444],[-126.93333333,36.46194444],[-125.83333333,35.5],[-125.83333333,35.5],[-124.2,36.0],[-124.2,36.0],[-123.25,34.5],[-123.25,34.5],[-120.83333333,30.75],[-120.83333333,30.75],[-120.0,30.0],[-120.0,30.0],[-120.0,3.5],[-120.0,3.5],[-145.0,3.5],[-145.0,3.5],[-155.0,-5.0],[-155.0,-5.0],[-180.0,-5.0],[-180.0,-5.0],[-180.0,3.5],[-180.0,3.5],[160.0,3.5],[160.0,3.5],[160.0,0.0],[160.0,0.0],[141.0,0.0],[141.0,0.0],[141.0,3.5],[141.0,3.5],[133.0,3.5],[133.0,3.5],[130.0,7.0],[130.0,7.0],[130.0,21.0]]]}},{"type":"Feature","properties":{"id":"ZAN","name":"ANCHORAGE","label":"Anchorage Center","altitude":"HIGH"},"geometry":{"type":"Polygon","coordinates":[[[-141.0,90.0],[-141.0,89.99183055],[-141.0,72.0],[-141.00200891,62.00079041],[-139.18218333,60.34821666],[-139.06666666,60.35],[-139.05805555,60.32722222],[-139.18611111,60.0925],[-139.04444444,59.99388888],[-138.70583333,59.91111111],[-138.66666666,59.80833333],[-138.62361111,59.77166666],[-136.23688055,59.52979722],[-134.99055555,59.38944444],[-135.03361111,59.35027777],[-134.9475,59.27833333],[-134.6925,59.25138888],[-134.67388888,59.19333333],[-134.55972222,59.12888888],[-134.48333333,59.13333333],[-134.38333333,59.04166666],[-134.40166666,58.97972222],[-134.31666666,58.9625],[-134.33222222,58.92694444],[-134.23833333,58.85388888],[-133.83777777,58.72888888],[-133.36111111,58.42444444],[-133.43916666,58.3825],[-133.16972222,58.15972222],[-133.07805555,58.0075],[-132.87944444,57.84972222],[-132.22888888,57.21416666],[-132.36666666,57.08888888],[-132.04222222,57.04638888],[-132.06611111,57.0],[-132.06598611,56.99998888],[-131.87222222,56.80805555],[-131.89666666,56.7525],[-131.86166666,56.71083333],[-131.83083333,56.60083333],[-131.58333333,56.61444444],[-131.4725,56.55333333],[-131.08333333,56.40833333],[-130.78333333,56.36666666],[-130.63333333,56.275],[-130.46916666,56.245],[-130.41722222,56.14083333],[-130.38833333,56.13888888],[-130.24444444,56.09805555],[-130.10722222,56.12444444],[-130.01055555,56.0],[-130.01722222,55.925],[-130.00805555,55.91472222],[-130.01055555,55.90305555],[-130.00166666,55.89888888],[-130.08611111,55.81388888],[-130.14555555,55.77055555],[-130.15083333,55.72722222],[-130.14333333,55.71194444],[-130.13194444,55.69583333],[-130.10416666,55.6725],[-130.1025,55.64888888],[-130.10640277,55.63541666],[-130.11527777,55.61944444],[-130.11611111,55.60944444],[-130.12222222,55.59416666],[-130.12,55.55166666],[-130.10944444,55.54222222],[-130.08916666,55.51222222],[-130.08111111,55.48888888],[-130.04055555,55.45472222],[-130.03027777,55.43277777],[-130.02527777,55.34166666],[-129.97555555,55.29444444],[-129.97777777,55.28194444],[-130.10027777,55.19166666],[-130.14222222,55.14722222],[-130.1875,55.06666666],[-130.30388888,54.93555555],[-130.49055555,54.82166666],[-130.53833333,54.79666666],[-130.64222222,54.77083333],[-130.65,54.7625],[-130.60833333,54.70833333],[-131.8,54.49166666],[-132.83333333,54.58333333],[-134.0,54.10833333],[-135.45693888,54.11350833],[-136.0,54.0],[-137.0,53.3675],[-151.75,56.76166666],[-153.0,56.0],[-160.0,53.5],[-167.81666666,51.4],[-176.56666666,50.13333333],[162.91666666,45.7],[159.00781938,50.07542586],[169.0,54.0],[169.99360147,54.67043138],[180.0,60.0],[-177.75166666,61.33666666],[-172.2,64.05],[-168.97333333,65.0],[-168.97333333,68.00339172],[-168.97333333,72.0],[-168.97333333,72.17057783],[-168.97333333,73.46393091],[-168.97333333,76.32450247],[-168.97333333,87.63333333],[-141.0,90.0]]]}},{"type":"Feature","properties":{"id":"ZAN","name":"ANCHORAGE","label":"Anchorage Center","altitude":"LOW"},"geometry":{"type":"Polygon","coordinates":[[[-141.0,90.0],[-141.0,89.99183055],[-141.0,72.0],[-141.00200891,62.00079041],[-139.18218333,60.34821666],[-139.06666666,60.35],[-139.05805555,60.32722222],[-139.18611111,60.0925],[-139.04444444,59.99388888],[-138.70583333,59.91111111],[-138.66666666,59.80833333],[-138.62361111,59.77166666],[-136.23688055,59.52979722],[-134.99055555,59.38944444],[-135.03361111,59.35027777],[-134.9475,59.27833333],[-134.6925,59.25138888],[-134.67388888,59.19333333],[-134.55972222,59.12888888],[-134.48333333,59.13333333],[-134.38333333,59.04166666],[-134.40166666,58.97972222],[-134.31666666,58.9625],[-134.33222222,58.92694444],[-134.23833333,58.85388888],[-133.83777777,58.72888888],[-133.36111111,58.42444444],[-133.43916666,58.3825],[-133.16972222,58.15972222],[-133.07805555,58.0075],[-132.87944444,57.84972222],[-132.22888888,57.21416666],[-132.36666666,57.08888888],[-132.04222222,57.04638888],[-132.06611111,57.0],[-132.06598611,56.99998888],[-131.87222222,56.80805555],[-131.89666666,56.7525],[-131.86166666,56.71083333],[-131.83083333,56.60083333],[-131.58333333,56.61444444],[-131.4725,56.55333333],[-131.08333333,56.40833333],[-130.78333333,56.36666666],[-130.63333333,56.275],[-130.46916666,56.245],[-130.41722222,56.14083333],[-130.38833333,56.13888888],[-130.24444444,56.09805555],[-130.10722222,56.12444444],[-130.01055555,56.0],[-130.01722222,55.925],[-130.00805555,55.91472222],[-130.01055555,55.90305555],[-130.00166666,55.89888888],[-130.08611111,55.81388888],[-130.14555555,55.77055555],[-130.15083333,55.72722222],[-130.14333333,55.71194444],[-130.13194444,55.69583333],[-130.10416666,55.6725],[-130.1025,55.64888888],[-130.10640277,55.63541666],[-130.11527777,55.61944444],[-130.11611111,55.60944444],[-130.12222222,55.59416666],[-130.12,55.55166666],[-130.10944444,55.54222222],[-130.08916666,55.51222222],[-130.08111111,55.48888888],[-130.04055555,55.45472222],[-130.03027777,55.43277777],[-130.02527777,55.34166666],[-129.97555555,55.29444444],[-129.97777777,55.28194444],[-130.10027777,55.19166666],[-130.14222222,55.14722222],[-130.1875,55.06666666],[-130.30388888,54.93555555],[-130.49055555,54.82166666],[-130.53833333,54.79666666],[-130.64222222,54.77083333],[-130.65,54.7625],[-130.60833333,54.70833333],[-131.8,54.49166666],[-132.83333333,54.58333333],[-134.0,54.10833333],[-135.45693888,54.11350833],[-136.0,54.0],[-137.0,53.3675],[-151.75,56.76166666],[-153.0,56.0],[-160.0,53.5],[-167.81666666,51.4],[-176.56666666,50.13333333],[162.91666666,45.7],[159.00781938,50.07542586],[169.0,54.0],[169.99360147,54.67043138],[180.0,60.0],[-177.75166666,61.33666666],[-172.2,64.05],[-168.97333333,65.0],[-168.97333333,68.00339172],[-168.97333333,72.0],[-168.97333333,72.17057783],[-168.97333333,73.46393091],[-168.97333333,76.32450247],[-168.97333333,87.63333333],[-141.0,90.0]]]}},{"type":"Feature","properties":{"id":"ZAN","name":"ANCHORAGE","label":"Anchorage Center","altitude":"UNLIMITED"},"geometry":{"type":"Polygon","coordinates":[[[-168.97333333,65.0],[-172.2,64.05],[-177.75166666,61.33666666],[180.0,60.0],[169.99360147,54.67043138],[170.0,51.5],[173.73333333,51.08333333],[-176.56666666,50.13333333],[-167.81666666,51.4],[-160.0,53.5],[-153.0,56.0],[-151.75,56.76166666],[-137.0,53.3675],[-135.0,52.71666666],[-134.99645547,52.71774647],[-136.0,54.0],[-134.95,54.21666666],[-132.68416666,54.66222222],[-130.60833333,54.70833333],[-130.65,54.7625],[-130.64222222,54.77083333],[-130.53833333,54.79666666],[-130.49055555,54.82166666],[-130.30388888,54.93555555],[-130.1875,55.06666666],[-130.14222222,55.14722222],[-130.10027777,55.19166666],[-129.97777777,55.28194444],[-129.97555555,55.29444444],[-130.02527777,55.34166666],[-130.03027777,55.43277777],[-130.04055555,55.45472222],[-130.08111111,55.48888888],[-130.08916666,55.51222222],[-130.10944444,55.54222222],[-130.12,55.55166666],[-130.12222222,55.59416666],[-130.11611111,55.60944444],[-130.11527777,55.61944444],[-130.10640277,55.63541666],[-130.1025,55.64888888],[-130.10416666,55.6725],[-130.13194444,55.69583333],[-130.14333333,55.71194444],[-130.15083333,55.72722222],[-130.14555555,55.77055555],[-130.08611111,55.81388888],[-130.00166666,55.89888888],[-130.01055555,55.90305555],[-130.00805555,55.91472222],[-130.01722222,55.925],[-130.01055555,56.0],[-130.10722222,56.12444444],[-130.24444444,56.09805555],[-130.38833333,56.13888888],[-130.41722222,56.14083333],[-130.46916666,56.245],[-130.63333333,56.275],[-130.78333333,56.36666666],[-131.08333333,56.40833333],[-131.4725,56.55333333],[-131.58333333,56.61444444],[-131.83083333,56.60083333],[-131.86166666,56.71083333],[-131.89666666,56.7525],[-131.87222222,56.80805555],[-132.06598888,56.99998888],[-132.06611111,57.0],[-132.04222222,57.04638888],[-132.36666666,57.08888888],[-132.22888888,57.21416666],[-132.87944444,57.84972222],[-133.07805555,58.0075],[-133.16972222,58.15972222],[-133.43916666,58.3825],[-133.36111111,58.42444444],[-133.83777777,58.72888888],[-134.23833333,58.85388888],[-134.33222222,58.92694444],[-134.31666666,58.9625],[-134.40166666,58.97972222],[-134.38333333,59.04166666],[-134.48333333,59.13333333],[-134.55972222,59.12888888],[-134.67388888,59.19333333],[-134.6925,59.25138888],[-134.9475,59.27833333],[-135.03361111,59.35027777],[-134.99055555,59.38944444],[-135.095,59.43194444],[-135.06583333,59.45944444],[-135.03083333,59.47361111],[-135.02888888,59.56916666],[-135.12833333,59.63083333],[-135.16527777,59.62833333],[-135.215,59.65861111],[-135.3575,59.73888888],[-135.48305555,59.8],[-135.93888888,59.66694444],[-136.17222222,59.64194444],[-136.29277777,59.61916666],[-136.34166666,59.60444444],[-136.23055555,59.55944444],[-136.22388888,59.54333333],[-136.29546111,59.46499722],[-136.33805555,59.45777777],[-136.40083333,59.45277777],[-136.46416666,59.46555555],[-136.45777777,59.28138888],[-136.48333333,59.27638888],[-136.57583333,59.17],[-136.82333333,59.15805555],[-137.25416666,59.0075],[-137.31166666,58.98222222],[-137.44583333,58.91055555],[-137.52083333,58.91666666],[-137.49277777,58.99111111],[-137.59833333,59.24166666],[-138.62361111,59.77166666],[-138.66666666,59.80833333],[-138.70583333,59.91111111],[-139.04444444,59.99388888],[-139.18611111,60.0925],[-139.05805555,60.32722222],[-139.06666666,60.35],[-139.67444444,60.33944444],[-139.97722222,60.18472222],[-140.45555555,60.31138888],[-140.52194444,60.22583333],[-141.00222222,60.30638888],[-141.0,72.0],[-158.0,72.0],[-168.97333333,68.00339172],[-168.97333333,65.0]]]}},{"type":"Feature","properties":{"id":"ZAP","name":"ANCHORAGE OCEANIC","label":"Anchorage Oceanic","altitude":"UNLIMITED"},"geometry":{"type":"Polygon","coordinates":[[[159.00781938,50.07542586],[-141.0,90.0],[169.0,54.0],[-141.0,89.99183055],[169.99360147,54.67043138],[-141.0,72.0],[170.0,51.5],[-158.0,72.0],[173.73333333,51.08333333],[-168.97333333,68.00339172],[-176.56666666,50.13333333],[-168.97333333,72.0],[162.91666666,45.7],[-168.97333333,72.17057783],[-168.97333333,73.46393091],[-168.97333333,76.32450247],[-168.97333333,87.63333333],[159.00781938,50.07542586]]]}},{"type":"Feature","properties":{"id":"ZAU","name":"CHICAGO","label":"Chicago Center","altitude":"HIGH"},"geometry":{"type":"Polygon","coordinates":[[[-93.46666666,41.66666666],[-93.05,42.66666666],[-93.0,42.78333333],[-91.725,42.725],[-91.08333333,43.36666666],[-90.82916666,43.61805555],[-90.29166666,44.15416666],[-89.5875,44.15416666],[-89.07611111,44.225],[-88.75416666,44.15944444],[-88.46666666,44.1],[-87.54166666,43.96666666],[-87.16944444,43.69166666],[-84.96361111,43.58666666],[-85.0,43.5],[-85.0,42.0],[-84.76666666,41.85833333],[-84.71666666,41.28333333],[-84.7,40.95833333],[-84.7,40.90833333],[-84.68333333,40.775],[-84.68333333,40.66666666],[-85.525,40.35416666],[-86.1,40.0],[-88.25,40.0],[-89.75,40.0],[-91.65,40.78333333],[-91.74166666,40.76388888],[-93.49166666,40.525],[-93.6,41.16666666],[-93.50833333,41.43333333],[-93.46666666,41.66666666]]]}},{"type":"Feature","properties":{"id":"ZAU","name":"CHICAGO","label":"Chicago Center","altitude":"LOW"},"geometry":{"type":"Polygon","coordinates":[[[-93.46666666,41.66666666],[-93.05,42.66666666],[-93.0,42.78333333],[-91.725,42.725],[-91.08333333,43.36666666],[-90.82916666,43.61805555],[-90.29166666,44.15416666],[-89.5875,44.15416666],[-89.07611111,44.225],[-88.75416666,44.15944444],[-88.46666666,44.1],[-87.54166666,43.96666666],[-87.16944444,43.69166666],[-84.96361111,43.58666666],[-85.0,43.5],[-85.0,41.85],[-85.10833333,41.38333333],[-84.71666666,41.28333333],[-84.7,40.95833333],[-84.7,40.90833333],[-84.68444444,40.74638888],[-84.99194444,40.60694444],[-85.41444444,40.66333333],[-85.50416666,40.55833333],[-85.95555555,40.11944444],[-86.1,40.0],[-86.95,40.0],[-88.25,40.0],[-89.75,40.0],[-91.65,40.78333333],[-91.74166666,40.76388888],[-93.49166666,40.525],[-93.6,41.16666666],[-93.50833333,41.43333333],[-93.46666666,41.66666666]]]}},{"type":"Feature","properties":{"id":"ZBW","name":"BOSTON","label":"Boston Center","altitude":"HIGH"},"geometry":{"type":"Polygon","coordinates":[[[-76.79666666,43.63111111],[-76.41666666,44.10416666],[-76.33333333,44.16666666],[-76.28333333,44.20416666],[-76.23333333,44.20416666],[-76.18333333,44.23333333],[-76.13333333,44.29166666],[-76.06666666,44.32222222],[-76.0,44.35],[-75.95,44.34722222],[-75.81666666,44.44583333],[-75.76666666,44.5125],[-75.5,44.71666666],[-75.7,44.66666666],[-75.75,44.81666666],[-74.88333333,44.96666666],[-74.96666666,45.06916666],[-74.78444444,45.14305555],[-74.56666666,45.18333333],[-74.25,45.0],[-71.48333333,45.01666666],[-71.33611111,45.28333333],[-71.0,45.31666666],[-70.50277777,45.68611111],[-70.25,45.90833333],[-70.20833333,46.30833333],[-70.05833333,46.41666666],[-70.0,46.75],[-69.21666666,47.45],[-68.56666666,47.2875],[-68.53222222,47.32666666],[-68.48194444,47.36388888],[-68.42666666,47.39777777],[-68.3675,47.42833333],[-68.30444444,47.45527777],[-68.23833333,47.47833333],[-68.16916666,47.4975],[-68.09777777,47.51222222],[-68.025,47.52277777],[-67.95083333,47.52861111],[-67.87638888,47.53027777],[-67.80194444,47.5275],[-67.72805555,47.52027777],[-67.65555555,47.50861111],[-67.58472222,47.49277777],[-67.51638888,47.47277777],[-67.45083333,47.44861111],[-67.38888888,47.42083333],[-67.33055555,47.38944444],[-67.27694444,47.35444444],[-67.22777777,47.31666666],[-67.18361111,47.27583333],[-67.145,47.23277777],[-67.11222222,47.1875],[-67.08527777,47.14055555],[-67.06472222,47.09194444],[-67.05027777,47.0425],[-67.04222222,46.99222222],[-67.04055555,46.94166666],[-67.04555555,46.89138888],[-67.05666666,46.84138888],[-67.07416666,46.79222222],[-67.09777777,46.74444444],[-67.1275,46.69833333],[-67.17027777,46.64527777],[-67.20333333,46.61194444],[-67.24916666,46.5725],[-67.3,46.53611111],[-67.21666666,46.2],[-67.21666666,46.14305555],[-67.58333333,45.825],[-67.80694444,45.78333333],[-67.775,45.625],[-67.0,44.93333333],[-67.0,41.86666666],[-67.0,41.61666666],[-69.0,41.0],[-69.34166666,40.925],[-70.87944444,40.57666666],[-72.5,40.07222222],[-72.78194444,40.19861111],[-73.00833333,39.99444444],[-73.15,39.73333333],[-73.16666666,39.68333333],[-73.28333333,39.73333333],[-73.72916666,39.93333333],[-73.69861111,40.23888888],[-73.29166666,40.80138888],[-73.37777777,40.85833333],[-73.85972222,40.85833333],[-73.86666666,41.24583333],[-74.44444444,41.4375],[-74.76666666,41.73333333],[-74.80833333,41.75833333],[-74.90833333,41.80138888],[-75.05833333,41.86944444],[-75.34166666,41.98888888],[-76.01666666,42.28333333],[-76.80277777,42.60833333],[-76.69722222,42.72777777],[-76.68916666,42.76861111],[-76.66666666,42.88333333],[-76.73333333,43.01666666],[-76.76388888,43.06666666],[-76.775,43.32916666],[-76.77833333,43.35444444],[-76.78055555,43.4],[-76.79666666,43.63111111]]]}},{"type":"Feature","properties":{"id":"ZBW","name":"BOSTON","label":"Boston Center","altitude":"LOW"},"geometry":{"type":"Polygon","coordinates":[[[-76.79666666,43.63111111],[-76.41666666,44.10416666],[-76.33333333,44.16666666],[-76.28333333,44.20416666],[-76.23333333,44.20416666],[-76.18333333,44.23333333],[-76.13333333,44.29166666],[-76.06666666,44.32222222],[-76.0,44.35],[-75.95,44.34722222],[-75.81666666,44.44583333],[-75.76666666,44.5125],[-75.5,44.71666666],[-75.7,44.66666666],[-75.75,44.81666666],[-74.88333333,44.96666666],[-74.96666666,45.06916666],[-74.78444444,45.14305555],[-74.56666666,45.18333333],[-74.25,45.0],[-71.48333333,45.01666666],[-71.33611111,45.28333333],[-71.0,45.31666666],[-70.50277777,45.68611111],[-70.25,45.90833333],[-70.20833333,46.30833333],[-70.05833333,46.41666666],[-70.0,46.75],[-69.21666666,47.45],[-68.56666666,47.2875],[-68.53222222,47.32666666],[-68.48194444,47.36388888],[-68.42666666,47.39777777],[-68.3675,47.42833333],[-68.30444444,47.45527777],[-68.23833333,47.47833333],[-68.16916666,47.4975],[-68.09777777,47.51222222],[-68.025,47.52277777],[-67.95083333,47.52861111],[-67.87638888,47.53027777],[-67.80194444,47.5275],[-67.72805555,47.52027777],[-67.65555555,47.50861111],[-67.58472222,47.49277777],[-67.51638888,47.47277777],[-67.45083333,47.44861111],[-67.38888888,47.42083333],[-67.33055555,47.38944444],[-67.27694444,47.35444444],[-67.22777777,47.31666666],[-67.18361111,47.27583333],[-67.145,47.23277777],[-67.11222222,47.1875],[-67.08527777,47.14055555],[-67.06472222,47.09194444],[-67.05027777,47.0425],[-67.04222222,46.99222222],[-67.04055555,46.94166666],[-67.04555555,46.89138888],[-67.05666666,46.84138888],[-67.07416666,46.79222222],[-67.09777777,46.74444444],[-67.1275,46.69833333],[-67.17027777,46.64527777],[-67.20333333,46.61194444],[-67.24916666,46.5725],[-67.3,46.53611111],[-67.21666666,46.2],[-67.21666666,46.14305555],[-67.58333333,45.825],[-67.80694444,45.78333333],[-67.775,45.625],[-67.0,44.93333333],[-67.0,41.86666666],[-67.0,41.61666666],[-69.0,41.0],[-69.34166666,40.925],[-70.87944444,40.57666666],[-72.5,40.07222222],[-72.98888888,40.29166666],[-73.23611111,40.39861111],[-73.25416666,40.40972222],[-73.4,40.3875],[-73.63611111,40.33194444],[-73.29166666,40.80138888],[-73.37777777,40.85833333],[-73.85972222,40.85833333],[-73.86666666,41.24583333],[-74.00611111,41.29444444],[-74.08472222,41.31944444],[-74.075,41.34166666],[-74.34583333,41.48333333],[-74.95833333,41.74166666],[-75.05833333,41.86944444],[-75.34166666,41.98888888],[-76.05277777,42.31194444],[-75.96944444,42.69583333],[-76.01388888,42.8625],[-76.08888888,42.9375],[-76.48333333,42.94166666],[-76.66666666,42.88333333],[-76.73333333,43.01666666],[-76.76388888,43.06666666],[-76.775,43.32916666],[-76.77833333,43.35444444],[-76.78055555,43.4],[-76.79666666,43.63111111]]]}},{"type":"Feature","properties":{"id":"ZDC","name":"WASHINGTON","label":"Washington Center","altitude":"HIGH"},"geometry":{"type":"Polygon","coordinates":[[[-80.4,39.16666666],[-79.89444444,39.17361111],[-79.54305555,39.37083333],[-77.93333333,39.85],[-77.84027777,39.85555555],[-77.61722222,39.77222222],[-77.35666666,39.78166666],[-77.35833333,39.51],[-76.85555555,39.385],[-76.34722222,39.39166666],[-75.65,39.85],[-75.625,39.86111111],[-75.32916666,40.06944444],[-74.78333333,40.10972222],[-74.68472222,39.98333333],[-73.69861111,40.23888888],[-73.72916666,39.93333333],[-73.28333333,39.73333333],[-73.16666666,39.68333333],[-73.43333333,39.33333333],[-73.84166666,38.76666666],[-73.98333333,38.54166666],[-74.59972222,37.08166666],[-74.59972222,36.78777777],[-74.93694444,35.49694444],[-75.19,35.30805555],[-75.68388888,34.60027777],[-76.77944444,32.96777777],[-78.75,34.44444444],[-79.33333333,34.425],[-79.72805555,34.71333333],[-79.91666666,34.85],[-80.14722222,34.85555555],[-80.0,35.10833333],[-79.80416666,35.38333333],[-79.74444444,36.08888888],[-79.95,36.15416666],[-80.63333333,37.33194444],[-80.74583333,37.30416666],[-80.84166666,37.46666666],[-80.71666666,38.04166666],[-80.56666666,38.76666666],[-80.4,39.16666666]]]}},{"type":"Feature","properties":{"id":"ZDC","name":"WASHINGTON","label":"Washington Center","altitude":"LOW"},"geometry":{"type":"Polygon","coordinates":[[[-80.4,39.16666666],[-79.89444444,39.17361111],[-79.54305555,39.37083333],[-77.93333333,39.85],[-77.84027777,39.85555555],[-77.355,39.875],[-77.35666666,39.78166666],[-77.35833333,39.51],[-76.85555555,39.385],[-76.34722222,39.39166666],[-75.65,39.85],[-75.625,39.86111111],[-75.11833333,40.21666666],[-75.11972222,40.2175],[-75.09638888,40.22277777],[-75.07583333,40.23055555],[-75.0575,40.23944444],[-75.03666666,40.255],[-75.01638888,40.29],[-75.01666666,40.29027777],[-74.95694444,40.34166666],[-74.67638888,40.25833333],[-74.51527777,40.30833333],[-74.33333333,40.25],[-74.45277777,40.14444444],[-74.68472222,39.98333333],[-74.80416666,39.9],[-74.94,39.75166666],[-74.91111111,39.70972222],[-74.8,39.65277777],[-74.45555555,39.65583333],[-74.49861111,39.59305555],[-74.19444444,39.57916666],[-73.65833333,39.03472222],[-73.84166666,38.76666666],[-73.98333333,38.54166666],[-74.59972222,37.08166666],[-74.59972222,36.78777777],[-74.93694444,35.49694444],[-75.19,35.30805555],[-75.68388888,34.60027777],[-76.77944444,32.96777777],[-78.75,34.44444444],[-79.72805555,34.71333333],[-79.91666666,34.85],[-80.14722222,34.85555555],[-80.0,35.10833333],[-79.80416666,35.38333333],[-79.74444444,36.08888888],[-79.95,36.15416666],[-80.63333333,37.33194444],[-80.74583333,37.30416666],[-80.84166666,37.46666666],[-80.71666666,38.04166666],[-80.56666666,38.76666666],[-80.4,39.16666666]]]}},{"type":"Feature","properties":{"id":"ZDV","name":"DENVER","label":"Denver Center","altitude":"HIGH"},"geometry":{"type":"Polygon","coordinates":[[[-103.16666666,44.95833333],[-101.48333333,44.7],[-101.40833333,43.70833333],[-100.1,43.28888888],[-99.01666666,42.0],[-99.05833333,39.98333333],[-98.8,39.46666666],[-102.55,37.5],[-105.0,36.71666666],[-106.08333333,36.71666666],[-107.46666666,36.2],[-108.21666666,36.03333333],[-110.23333333,35.7],[-111.84166666,35.76666666],[-111.50416666,36.42083333],[-111.60833333,36.73333333],[-111.87916666,37.4125],[-110.88333333,37.83333333],[-110.15694444,38.12916666],[-109.98333333,38.2],[-109.98333333,38.93333333],[-109.98333333,39.21666666],[-110.3,39.58333333],[-109.16666666,40.0],[-109.1,40.85],[-108.275,41.36666666],[-108.0,41.60833333],[-107.05,42.41666666],[-107.28333333,43.88333333],[-106.26666666,44.31666666],[-106.0,45.2375],[-104.25,45.11666666],[-103.16666666,44.95833333]]]}},{"type":"Feature","properties":{"id":"ZDV","name":"DENVER","label":"Denver Center","altitude":"LOW"},"geometry":{"type":"Polygon","coordinates":[[[-103.16666666,44.95833333],[-101.48333333,44.7],[-101.40833333,43.70833333],[-100.1,43.28888888],[-99.01666666,42.0],[-99.05833333,39.98333333],[-98.8,39.46666666],[-102.55,37.5],[-105.0,36.71666666],[-106.08333333,36.71666666],[-107.46666666,36.2],[-108.21666666,36.03333333],[-110.23333333,35.7],[-111.84166666,35.76666666],[-111.50416666,36.42083333],[-111.60833333,36.73333333],[-111.87916666,37.4125],[-110.88333333,37.83333333],[-110.15694444,38.12916666],[-109.98333333,38.2],[-109.98333333,38.93333333],[-109.98333333,39.21666666],[-110.3,39.58333333],[-109.16666666,40.0],[-109.1,40.85],[-108.275,41.36666666],[-108.0,41.60833333],[-107.05,42.41666666],[-107.28333333,43.88333333],[-106.26666666,44.31666666],[-106.0,45.2375],[-104.25,45.11666666],[-103.16666666,44.95833333]]]}},{"type":"Feature","properties":{"id":"ZFW","name":"FORT WORTH","label":"Fort Worth Center","altitude":"HIGH"},"geometry":{"type":"Polygon","coordinates":[[[-100.0,35.82916666],[-98.5,35.81666666],[-98.01666666,35.88333333],[-97.88333333,35.925],[-97.58333333,35.49166666],[-97.08333333,35.45833333],[-96.40416666,35.65],[-96.05,35.87083333],[-95.6125,36.01666666],[-95.36666666,35.87083333],[-95.0,35.65416666],[-95.0,35.38333333],[-95.0,35.06666666],[-94.78333333,34.69166666],[-94.53333333,34.53333333],[-93.54166666,34.03333333],[-93.15833333,33.95],[-91.9,33.00416666],[-91.68888888,32.28333333],[-92.25833333,32.28333333],[-93.32083333,31.55833333],[-94.2,31.57222222],[-95.98333333,31.46666666],[-96.68333333,31.20416666],[-97.2,31.2],[-97.5125,31.2125],[-97.7125,31.375],[-97.79444444,31.39027777],[-99.46666666,31.38333333],[-100.55,30.98333333],[-102.15,31.28333333],[-103.33333333,31.65],[-103.8,32.03333333],[-103.93333333,32.46666666],[-103.8,33.0],[-103.8,33.38333333],[-103.69166666,33.40277777],[-103.36666666,33.775],[-102.8,34.31666666],[-102.325,34.55],[-102.0,34.6],[-100.75,34.46666666],[-100.31666666,34.86666666],[-100.0,35.33333333],[-100.0,35.82916666]]]}},{"type":"Feature","properties":{"id":"ZFW","name":"FORT WORTH","label":"Fort Worth Center","altitude":"LOW"},"geometry":{"type":"Polygon","coordinates":[[[-100.0,35.82916666],[-98.5,35.81666666],[-98.01666666,35.88333333],[-97.88333333,35.925],[-97.58333333,35.49166666],[-97.08333333,35.45833333],[-96.40416666,35.65],[-96.05,35.87083333],[-95.6125,36.01666666],[-95.0,35.65416666],[-95.0,35.38333333],[-95.0,35.06666666],[-94.78333333,34.69166666],[-94.53333333,34.53333333],[-93.54166666,34.03333333],[-93.15833333,33.95],[-91.9,33.00416666],[-91.68888888,32.28333333],[-92.25833333,32.28333333],[-93.32083333,31.55833333],[-94.2,31.57222222],[-95.98333333,31.46666666],[-96.68333333,31.20416666],[-97.2,31.2],[-97.5125,31.2125],[-97.7125,31.375],[-97.79444444,31.39027777],[-99.46666666,31.38333333],[-100.55,30.98333333],[-102.15,31.28333333],[-103.33333333,31.65],[-103.8,32.03333333],[-103.93333333,32.46666666],[-103.8,33.0],[-103.8,33.38333333],[-103.69166666,33.40277777],[-103.36666666,33.775],[-102.8,34.31666666],[-102.325,34.55],[-102.0,34.6],[-100.75,34.46666666],[-100.31666666,34.86666666],[-100.0,35.33333333],[-100.0,35.82916666]]]}},{"type":"Feature","properties":{"id":"ZHN","name":"HONOLULU CONTROL FACILITY","label":"Honolulu Control Facility","altitude":"UNLIMITED"},"geometry":{"type":"Polygon","coordinates":[[[-156.42111111,25.19583333],[-155.26305555,24.72138888],[-154.25,24.29583333],[-153.36611111,23.78055555],[-152.57777777,23.02416666],[-151.88527777,22.34416666],[-151.46638888,21.54777777],[-151.01916666,20.69694444],[-150.50305555,19.69638888],[-151.87963333,19.22293333],[-154.48333333,19.14222222],[-155.71166666,18.10888888],[-156.06805555,17.805],[-156.80583333,17.17055555],[-157.75666666,17.17055555],[-158.25111111,17.22444444],[-159.53888888,17.75583333],[-160.26972222,18.0525],[-160.81416666,18.40777777],[-162.38361111,19.415],[-162.69944444,19.65805555],[-163.3,20.11666666],[-163.91444444,21.15111111],[-163.91444444,22.20555555],[-163.855,23.25833333],[-163.26638888,24.16888888],[-162.64972222,25.05666666],[-161.69111111,25.67611111],[-160.63166666,26.105],[-158.62194444,26.14472222],[-156.42111111,25.19583333]]]}},{"type":"Feature","properties":{"id":"ZHU","name":"HOUSTON","label":"Houston Center","altitude":"HIGH"},"geometry":{"type":"Polygon","coordinates":[[[-102.55833333,29.76666666],[-102.15,31.28333333],[-100.55,30.98333333],[-99.46666666,31.38333333],[-97.79444444,31.39027777],[-97.7125,31.375],[-97.5125,31.2125],[-97.2,31.2],[-96.68333333,31.20416666],[-95.98333333,31.46666666],[-94.2,31.57222222],[-93.32083333,31.55833333],[-92.25833333,32.28333333],[-91.68888888,32.28333333],[-91.30833333,31.9125],[-90.34583333,31.65],[-89.85,31.63055555],[-88.9,31.54722222],[-88.325,31.51666666],[-87.81666666,31.52083333],[-87.4,31.28055555],[-87.65833333,30.95833333],[-87.68333333,30.84583333],[-87.71666666,30.69166666],[-87.80833333,30.68333333],[-87.91666666,30.63333333],[-87.91666666,30.51666666],[-88.025,30.22083333],[-88.0,28.14166666],[-89.0,28.25],[-94.0,28.25],[-95.15,27.53333333],[-95.91666666,26.0],[-96.0,26.0],[-97.0,26.0],[-97.15,25.95833333],[-97.26666666,25.95],[-97.33333333,25.90416666],[-97.4,25.8375],[-97.46666666,25.88333333],[-97.53333333,25.90833333],[-97.6,25.975],[-97.66666666,26.01805555],[-97.73333333,26.025],[-97.8,26.05],[-97.86666666,26.05416666],[-97.93333333,26.05833333],[-98.0,26.06388888],[-98.06666666,26.04722222],[-98.13333333,26.06388888],[-98.2,26.05277777],[-98.26666666,26.08333333],[-98.33333333,26.13055555],[-98.4,26.16666666],[-98.46666666,26.22222222],[-98.53333333,26.22777777],[-98.6,26.25277777],[-98.66666666,26.23611111],[-98.73333333,26.3],[-98.8,26.36666666],[-98.86666666,26.36388888],[-98.93333333,26.38888888],[-99.0,26.39166666],[-99.06666666,26.4],[-99.13333333,26.52222222],[-99.2,26.63888888],[-99.26666666,26.80555555],[-99.33333333,26.91666666],[-99.4,27.0],[-99.46666666,27.26666666],[-99.53333333,27.30555555],[-99.48888888,27.41666666],[-99.52777777,27.49444444],[-99.56666666,27.60277777],[-99.63333333,27.625],[-99.7,27.65555555],[-99.76666666,27.72222222],[-99.83333333,27.76666666],[-99.9,27.91388888],[-99.96666666,27.98611111],[-100.03333333,28.07222222],[-100.1,28.15],[-100.16666666,28.16944444],[-100.23333333,28.225],[-100.3,28.33333333],[-100.34166666,28.45],[-100.4,28.53055555],[-100.45,28.60833333],[-100.51666666,28.66944444],[-100.58333333,28.85555555],[-100.65,28.93888888],[-100.71666666,29.12222222],[-100.78333333,29.22222222],[-100.85,29.26944444],[-100.91666666,29.31944444],[-100.98333333,29.36111111],[-101.05,29.43333333],[-101.11666666,29.46944444],[-101.18333333,29.51666666],[-101.25,29.51944444],[-101.3,29.56666666],[-101.33333333,29.65555555],[-101.4,29.73611111],[-101.46666666,29.78333333],[-101.53333333,29.75833333],[-101.6,29.76944444],[-101.66666666,29.76944444],[-101.73333333,29.77222222],[-101.8,29.78055555],[-101.86666666,29.79166666],[-101.93333333,29.80277777],[-102.0,29.8],[-102.06666666,29.78611111],[-102.13333333,29.8],[-102.2,29.83888888],[-102.26666666,29.86666666],[-102.33333333,29.86666666],[-102.4,29.76944444],[-102.46666666,29.775],[-102.53333333,29.75277777],[-102.55833333,29.76666666]]]}},{"type":"Feature","properties":{"id":"ZHU","name":"HOUSTON","label":"Houston Center","altitude":"LOW"},"geometry":{"type":"Polygon","coordinates":[[[-102.55833333,29.76666666],[-102.15,31.28333333],[-100.55,30.98333333],[-99.46666666,31.38333333],[-97.79444444,31.39027777],[-97.7125,31.375],[-97.5125,31.2125],[-97.2,31.2],[-96.68333333,31.20416666],[-95.98333333,31.46666666],[-94.2,31.57222222],[-93.32083333,31.55833333],[-92.25833333,32.28333333],[-91.68888888,32.28333333],[-91.30833333,31.9125],[-90.34583333,31.65],[-89.85,31.63055555],[-88.9,31.54722222],[-88.325,31.51666666],[-87.81666666,31.52083333],[-87.4,31.28055555],[-87.65833333,30.95833333],[-87.68333333,30.84583333],[-87.71666666,30.69166666],[-87.80833333,30.68333333],[-87.91666666,30.63333333],[-87.91666666,30.51666666],[-88.025,30.22083333],[-88.0,28.14166666],[-89.0,28.25],[-94.0,28.25],[-95.15,27.53333333],[-95.91666666,26.0],[-96.0,26.0],[-97.0,26.0],[-97.15,25.95833333],[-97.26666666,25.95],[-97.33333333,25.90416666],[-97.4,25.8375],[-97.46666666,25.88333333],[-97.53333333,25.90833333],[-97.6,25.975],[-97.66666666,26.01805555],[-97.73333333,26.025],[-97.8,26.05],[-97.86666666,26.05416666],[-97.93333333,26.05833333],[-98.0,26.06388888],[-98.06666666,26.04722222],[-98.13333333,26.06388888],[-98.2,26.05277777],[-98.26666666,26.08333333],[-98.33333333,26.13055555],[-98.4,26.16666666],[-98.46666666,26.22222222],[-98.53333333,26.22777777],[-98.6,26.25277777],[-98.66666666,26.23611111],[-98.73333333,26.3],[-98.8,26.36666666],[-98.86666666,26.36388888],[-98.93333333,26.38888888],[-99.0,26.39166666],[-99.06666666,26.4],[-99.13333333,26.52222222],[-99.2,26.63888888],[-99.26666666,26.80555555],[-99.33333333,26.91666666],[-99.4,27.0],[-99.46666666,27.26666666],[-99.53333333,27.30555555],[-99.48888888,27.41666666],[-99.52777777,27.49444444],[-99.56666666,27.60277777],[-99.63333333,27.625],[-99.7,27.65555555],[-99.76666666,27.72222222],[-99.83333333,27.76666666],[-99.9,27.91388888],[-99.96666666,27.98611111],[-100.03333333,28.07222222],[-100.1,28.15],[-100.16666666,28.16944444],[-100.23333333,28.225],[-100.3,28.33333333],[-100.34166666,28.45],[-100.4,28.53055555],[-100.45,28.60833333],[-100.51666666,28.66944444],[-100.58333333,28.85555555],[-100.65,28.93888888],[-100.71666666,29.12222222],[-100.78333333,29.22222222],[-100.85,29.26944444],[-100.91666666,29.31944444],[-100.98333333,29.36111111],[-101.05,29.43333333],[-101.11666666,29.46944444],[-101.18333333,29.51666666],[-101.25,29.51944444],[-101.3,29.56666666],[-101.33333333,29.65555555],[-101.4,29.73611111],[-101.46666666,29.78333333],[-101.53333333,29.75833333],[-101.6,29.76944444],[-101.66666666,29.76944444],[-101.73333333,29.77222222],[-101.8,29.78055555],[-101.86666666,29.79166666],[-101.93333333,29.80277777],[-102.0,29.8],[-102.06666666,29.78611111],[-102.13333333,29.8],[-102.2,29.83888888],[-102.26666666,29.86666666],[-102.33333333,29.86666666],[-102.4,29.76944444],[-102.46666666,29.775],[-102.53333333,29.75277777],[-102.55833333,29.76666666]]]}},{"type":"Feature","properties":{"id":"ZHU","name":"HOUSTON","label":"Houston Center","altitude":"UNLIMITED"},"geometry":{"type":"Polygon","coordinates":[[[-95.91666666,26.0],[-95.15,27.53333333],[-94.0,28.25],[-89.0,28.25],[-88.0,28.14166666],[-87.68333333,27.5],[-86.81722222,27.24138888],[-86.0,27.0],[-85.41388888,26.60277777],[-85.09166666,26.2],[-84.99972222,25.03361111],[-84.99972222,24.0],[-86.0,24.0],[-88.0,24.5],[-93.0,24.5],[-95.91666666,26.0]]]}},{"type":"Feature","properties":{"id":"ZID","name":"INDIANAPOLIS","label":"Indianapolis Center","altitude":"HIGH"},"geometry":{"type":"Polygon","coordinates":[[[-88.25,40.0],[-86.1,40.0],[-85.525,40.35416666],[-84.68333333,40.66666666],[-84.68333333,40.775],[-84.7,40.90833333],[-83.74583333,40.78333333],[-83.65,40.7375],[-83.5,40.55833333],[-83.33333333,40.50833333],[-81.78333333,40.6],[-81.63333333,40.21666666],[-81.55,39.75],[-80.5,39.16666666],[-80.4,39.16666666],[-80.56666666,38.76666666],[-80.71666666,38.04166666],[-80.84166666,37.46666666],[-80.74583333,37.30416666],[-85.4,36.18333333],[-85.58333333,36.9],[-85.74583333,37.01388888],[-86.15,37.3],[-87.39722222,37.275],[-88.31666666,37.725],[-88.23333333,38.15],[-88.09444444,38.48527777],[-88.14805555,39.86833333],[-88.18333333,39.90416666],[-88.25,40.0]]]}},{"type":"Feature","properties":{"id":"ZID","name":"INDIANAPOLIS","label":"Indianapolis Center","altitude":"LOW"},"geometry":{"type":"Polygon","coordinates":[[[-88.14805555,39.86833333],[-88.18333333,39.90416666],[-88.25,40.0],[-86.95,40.0],[-86.1,40.0],[-85.95555555,40.11944444],[-85.50416666,40.55833333],[-85.41444444,40.66333333],[-84.99194444,40.60694444],[-84.68444444,40.74638888],[-84.7,40.90833333],[-83.74583333,40.78333333],[-83.65,40.7375],[-83.5,40.55833333],[-83.33333333,40.50833333],[-81.78333333,40.6],[-81.63333333,40.21666666],[-81.55,39.75],[-80.5,39.16666666],[-80.4,39.16666666],[-80.56666666,38.76666666],[-80.71666666,38.04166666],[-80.84166666,37.46666666],[-80.74583333,37.30416666],[-85.4,36.18333333],[-85.58333333,36.9],[-85.74583333,37.01388888],[-86.15,37.3],[-87.39722222,37.275],[-88.31666666,37.725],[-88.23333333,38.15],[-88.09444444,38.48527777],[-88.14805555,39.86833333]]]}},{"type":"Feature","properties":{"id":"ZJX","name":"JACKSONVILLE","label":"Jacksonville Center","altitude":"HIGH"},"geometry":{"type":"Polygon","coordinates":[[[-87.4,31.28055555],[-86.95,31.49166666],[-85.58333333,31.7625],[-85.30833333,31.53333333],[-84.1,31.68333333],[-83.1125,31.68333333],[-82.33333333,32.16666666],[-81.93333333,32.5625],[-81.84138888,32.90027777],[-81.85,33.88888888],[-81.80444444,33.98527777],[-81.57444444,34.29361111],[-81.33333333,34.39444444],[-80.46888888,34.7475],[-80.14722222,34.85555555],[-79.91666666,34.85],[-79.72805555,34.71333333],[-79.33333333,34.425],[-78.75,34.44444444],[-76.77944444,32.96777777],[-77.0,32.26222222],[-77.0,30.0],[-77.21666666,30.0],[-79.28666666,30.20027777],[-79.90083333,29.82222222],[-80.11555555,29.025],[-80.73333333,28.9],[-80.98611111,28.72777777],[-81.5,28.34638888],[-82.38333333,27.95],[-82.94166666,27.95],[-83.20833333,28.15833333],[-83.51666666,28.4],[-84.01,28.54805555],[-84.5,28.16666666],[-84.61611111,28.0625],[-84.94444444,28.04305555],[-85.25,27.5],[-85.62222222,27.25388888],[-86.0,27.0],[-86.81722222,27.24138888],[-87.68333333,27.5],[-88.0,28.14166666],[-88.025,30.22083333],[-87.91666666,30.51666666],[-87.91666666,30.63333333],[-87.80833333,30.68333333],[-87.71666666,30.69166666],[-87.68333333,30.84583333],[-87.65833333,30.95833333],[-87.4,31.28055555]]]}},{"type":"Feature","properties":{"id":"ZJX","name":"JACKSONVILLE","label":"Jacksonville Center","altitude":"LOW"},"geometry":{"type":"Polygon","coordinates":[[[-87.4,31.28055555],[-86.95,31.49166666],[-83.8,32.09166666],[-83.49583333,32.125],[-82.64583333,32.44722222],[-82.2,32.29166666],[-81.93333333,32.5625],[-81.84138888,32.90027777],[-81.85,33.88888888],[-81.80444444,33.98527777],[-81.57444444,34.29361111],[-81.33333333,34.39444444],[-80.46888888,34.7475],[-80.14722222,34.85555555],[-79.91666666,34.85],[-79.72805555,34.71333333],[-78.75,34.44444444],[-76.77944444,32.96777777],[-77.0,32.26222222],[-77.0,30.0],[-77.21666666,30.0],[-79.28666666,30.20027777],[-79.90083333,29.82222222],[-80.11555555,29.025],[-80.73333333,28.9],[-80.98611111,28.72777777],[-80.90333333,28.5025],[-80.96805555,28.47083333],[-81.40972222,28.38638888],[-81.5,28.34638888],[-82.38333333,27.95],[-82.94166666,27.95],[-83.20833333,28.15833333],[-83.51666666,28.4],[-84.01,28.54805555],[-84.5,28.16666666],[-84.61611111,28.0625],[-84.94444444,28.04305555],[-85.25,27.5],[-85.62222222,27.25388888],[-86.0,27.0],[-86.81722222,27.24138888],[-87.68333333,27.5],[-88.0,28.14166666],[-88.025,30.22083333],[-87.91666666,30.51666666],[-87.91666666,30.63333333],[-87.80833333,30.68333333],[-87.71666666,30.69166666],[-87.68333333,30.84583333],[-87.65833333,30.95833333],[-87.4,31.28055555]]]}},{"type":"Feature","properties":{"id":"ZKC","name":"KANSAS CITY","label":"Kansas City Center","altitude":"HIGH"},"geometry":{"type":"Polygon","coordinates":[[[-98.8,39.46666666],[-93.49166666,40.525],[-91.74166666,40.76388888],[-91.65,40.78333333],[-89.75,40.0],[-88.25,40.0],[-88.18333333,39.90416666],[-88.14805555,39.86833333],[-88.09444444,38.48527777],[-88.23333333,38.15],[-88.31666666,37.725],[-88.83333333,37.53333333],[-90.56666666,37.15],[-93.25,36.725],[-94.40833333,36.49166666],[-94.68333333,36.43333333],[-95.36666666,35.87083333],[-95.6125,36.01666666],[-96.05,35.87083333],[-96.40416666,35.65],[-97.08333333,35.45833333],[-97.58333333,35.49166666],[-97.88333333,35.925],[-98.01666666,35.88333333],[-98.5,35.81666666],[-100.0,35.82916666],[-101.75,36.5],[-102.55,37.5],[-98.8,39.46666666]]]}},{"type":"Feature","properties":{"id":"ZKC","name":"KANSAS CITY","label":"Kansas City Center","altitude":"LOW"},"geometry":{"type":"Polygon","coordinates":[[[-98.8,39.46666666],[-93.49166666,40.525],[-91.74166666,40.76388888],[-91.65,40.78333333],[-89.75,40.0],[-88.25,40.0],[-88.18333333,39.90416666],[-88.14805555,39.86833333],[-88.09444444,38.48527777],[-88.23333333,38.15],[-88.31666666,37.725],[-88.83333333,37.53333333],[-90.56666666,37.15],[-93.25,36.725],[-94.40833333,36.49166666],[-94.68333333,36.43333333],[-95.19583333,36.2875],[-95.4,36.20416666],[-95.6125,36.01666666],[-96.05,35.87083333],[-96.40416666,35.65],[-97.08333333,35.45833333],[-97.58333333,35.49166666],[-97.88333333,35.925],[-98.01666666,35.88333333],[-98.5,35.81666666],[-100.0,35.82916666],[-101.75,36.5],[-102.55,37.5],[-98.8,39.46666666]]]}},{"type":"Feature","properties":{"id":"ZLA","name":"LOS ANGELES","label":"Los Angeles Center","altitude":"HIGH"},"geometry":{"type":"Polygon","coordinates":[[[-123.25,34.5],[-120.85,35.53333333],[-120.11666666,35.75],[-119.5,35.63333333],[-119.16666666,36.13333333],[-118.58333333,36.13333333],[-118.58333333,37.2],[-117.33333333,37.2],[-117.00833333,37.36666666],[-117.07583333,37.44166666],[-117.09472222,37.55],[-117.09472222,37.88333333],[-116.9175,37.88333333],[-116.83333333,37.88333333],[-116.43416666,37.88333333],[-116.18416666,37.88333333],[-114.70166666,37.99972222],[-114.50083333,38.01666666],[-114.20083333,38.01666666],[-114.0,37.96833333],[-113.78333333,37.71666666],[-113.0,37.5],[-111.87916666,37.4125],[-111.60833333,36.73333333],[-111.50416666,36.42083333],[-111.84166666,35.76666666],[-112.0,35.4],[-112.15305555,35.39666666],[-112.66666666,35.38333333],[-112.92777777,35.25555555],[-113.61666666,34.91666666],[-113.7,34.86666666],[-114.0,34.66666666],[-114.0,33.4],[-114.0,32.68333333],[-113.68472222,32.7375],[-113.51276944,32.11622777],[-113.50833333,32.1],[-114.0,32.25],[-114.81305555,32.49388888],[-114.71861111,32.71861111],[-115.80833333,32.64166666],[-117.12361111,32.53416666],[-117.31416666,32.44666666],[-120.66666666,30.83333333],[-120.83333333,30.75],[-123.25,34.5]]]}},{"type":"Feature","properties":{"id":"ZLA","name":"LOS ANGELES","label":"Los Angeles Center","altitude":"LOW"},"geometry":{"type":"Polygon","coordinates":[[[-123.25,34.5],[-120.85,35.53333333],[-120.11666666,35.75],[-119.5,35.63333333],[-119.16666666,36.13333333],[-118.58333333,36.13333333],[-118.58333333,37.2],[-117.33333333,37.2],[-117.00833333,37.36666666],[-117.07583333,37.44166666],[-117.09472222,37.55],[-117.09472222,37.88333333],[-116.9175,37.88333333],[-116.83333333,37.88333333],[-116.43416666,37.88333333],[-116.18416666,37.88333333],[-114.70166666,37.99972222],[-114.50083333,38.01666666],[-114.20083333,38.01666666],[-114.0,37.96833333],[-113.78333333,37.71666666],[-113.0,37.5],[-111.87916666,37.4125],[-111.60833333,36.73333333],[-111.50416666,36.42083333],[-111.84166666,35.76666666],[-112.0,35.4],[-112.15305555,35.39666666],[-112.66666666,35.38333333],[-112.92777777,35.25555555],[-113.61666666,34.91666666],[-113.7,34.86666666],[-114.0,34.66666666],[-114.0,33.4],[-114.0,32.68333333],[-113.68472222,32.7375],[-113.51276944,32.11622777],[-113.50833333,32.1],[-114.0,32.25],[-114.81305555,32.49388888],[-114.71861111,32.71861111],[-115.80833333,32.64166666],[-117.12361111,32.53416666],[-117.31416666,32.44666666],[-120.66666666,30.83333333],[-120.83333333,30.75],[-123.25,34.5]]]}},{"type":"Feature","properties":{"id":"ZLC","name":"SALT LAKE CITY","label":"Salt Lake City Center","altitude":"HIGH"},"geometry":{"type":"Polygon","coordinates":[[[-114.66666666,49.0],[-114.5,49.0],[-114.0,49.0],[-113.5,49.0],[-113.0,49.0],[-112.5,49.0],[-112.0,49.0],[-111.5,49.0],[-111.0,49.0],[-110.5,49.0],[-110.0,49.0],[-109.5,49.0],[-109.0,49.0],[-108.5,49.0],[-108.0,49.0],[-107.5,49.0],[-107.0,49.0],[-106.5,49.0],[-106.0,49.0],[-105.5,49.0],[-105.0,49.0],[-104.5,49.0],[-104.0,49.0],[-103.5,49.0],[-103.16666666,49.0],[-103.16666666,46.6],[-103.16666666,44.95833333],[-104.25,45.11666666],[-106.0,45.2375],[-106.26666666,44.31666666],[-107.28333333,43.88333333],[-107.05,42.41666666],[-108.0,41.60833333],[-108.275,41.36666666],[-109.1,40.85],[-109.16666666,40.0],[-110.3,39.58333333],[-109.98333333,39.21666666],[-109.98333333,38.93333333],[-109.98333333,38.2],[-110.15694444,38.12916666],[-110.88333333,37.83333333],[-111.87916666,37.4125],[-113.0,37.5],[-113.78333333,37.71666666],[-114.0,37.96833333],[-114.20083333,38.01666666],[-114.50083333,38.01666666],[-114.70166666,37.99972222],[-116.18416666,37.88333333],[-116.43416666,37.88333333],[-116.83333333,37.88333333],[-116.9175,37.88333333],[-117.09472222,37.88333333],[-117.26666666,38.08333333],[-117.36666666,39.93333333],[-119.5,41.0],[-119.0,42.66666666],[-119.28333333,43.63333333],[-118.45,44.85],[-117.75,45.33333333],[-115.0,45.33333333],[-115.0,48.41666666],[-114.66666666,49.0]]]}},{"type":"Feature","properties":{"id":"ZLC","name":"SALT LAKE CITY","label":"Salt Lake City Center","altitude":"LOW"},"geometry":{"type":"Polygon","coordinates":[[[-114.66666666,49.0],[-114.5,49.0],[-114.0,49.0],[-113.5,49.0],[-113.0,49.0],[-112.5,49.0],[-112.0,49.0],[-111.5,49.0],[-111.0,49.0],[-110.5,49.0],[-110.0,49.0],[-109.5,49.0],[-109.0,49.0],[-108.5,49.0],[-108.0,49.0],[-107.5,49.0],[-107.0,49.0],[-106.5,49.0],[-106.0,49.0],[-105.5,49.0],[-105.0,49.0],[-104.5,49.0],[-104.0,49.0],[-103.5,49.0],[-103.16666666,49.0],[-103.16666666,46.6],[-103.16666666,44.95833333],[-104.25,45.11666666],[-106.0,45.2375],[-106.26666666,44.31666666],[-107.28333333,43.88333333],[-107.05,42.41666666],[-108.0,41.60833333],[-108.275,41.36666666],[-109.1,40.85],[-109.16666666,40.0],[-110.3,39.58333333],[-109.98333333,39.21666666],[-109.98333333,38.93333333],[-109.98333333,38.2],[-110.15694444,38.12916666],[-110.88333333,37.83333333],[-111.87916666,37.4125],[-113.0,37.5],[-113.78333333,37.71666666],[-114.0,37.96833333],[-114.20083333,38.01666666],[-114.50083333,38.01666666],[-114.70166666,37.99972222],[-116.18416666,37.88333333],[-116.43416666,37.88333333],[-116.83333333,37.88333333],[-116.9175,37.88333333],[-117.09472222,37.88333333],[-117.26666666,38.08333333],[-117.36666666,39.93333333],[-119.5,41.0],[-119.0,42.66666666],[-119.28333333,43.63333333],[-118.45,44.85],[-117.75,45.33333333],[-115.0,45.33333333],[-115.0,48.41666666],[-114.66666666,49.0]]]}},{"type":"Feature","properties":{"id":"ZMA","name":"MIAMI","label":"Miami Center","altitude":"HIGH"},"geometry":{"type":"Polygon","coordinates":[[[-85.25,27.5],[-84.94444444,28.04305555],[-84.61611111,28.0625],[-84.5,28.16666666],[-84.01,28.54805555],[-83.51666666,28.4],[-83.20833333,28.15833333],[-82.94166666,27.95],[-82.38333333,27.95],[-81.5,28.34638888],[-80.98611111,28.72777777],[-80.73333333,28.9],[-80.11555555,29.025],[-79.90083333,29.82222222],[-79.28666666,30.20027777],[-77.21666666,30.0],[-77.0,30.0],[-76.26444444,27.83333333],[-77.0,27.55],[-77.0,27.0],[-78.88333333,27.0],[-79.0,26.45],[-79.0,24.66666666],[-78.0,24.0],[-83.16666666,24.0],[-83.24055555,24.64388888],[-84.5,27.5],[-85.25,27.5]]]}},{"type":"Feature","properties":{"id":"ZMA","name":"MIAMI","label":"Miami Center","altitude":"LOW"},"geometry":{"type":"Polygon","coordinates":[[[-85.25,27.5],[-84.94444444,28.04305555],[-84.61611111,28.0625],[-84.5,28.16666666],[-84.01,28.54805555],[-83.51666666,28.4],[-83.20833333,28.15833333],[-82.94166666,27.95],[-82.38333333,27.95],[-81.5,28.34638888],[-81.40972222,28.38638888],[-80.96805555,28.47083333],[-80.90333333,28.5025],[-80.98611111,28.72777777],[-80.73333333,28.9],[-80.11555555,29.025],[-79.90083333,29.82222222],[-79.28666666,30.20027777],[-77.21666666,30.0],[-77.0,30.0],[-76.26444444,27.83333333],[-77.0,27.55],[-77.0,27.0],[-78.88333333,27.0],[-79.0,26.45],[-79.0,24.66666666],[-78.0,24.0],[-83.16666666,24.0],[-83.24055555,24.64388888],[-84.5,27.5],[-85.25,27.5]]]}},{"type":"Feature","properties":{"id":"ZMA","name":"MIAMI","label":"Miami Center","altitude":"UNLIMITED"},"geometry":{"type":"Polygon","coordinates":[[[-84.99972222,24.0],[-84.99972222,25.03361111],[-85.09166666,26.2],[-85.41388888,26.60277777],[-86.0,27.0],[-85.25,27.5],[-84.5,27.5],[-83.24055555,24.64388888],[-83.16666666,24.0],[-77.0,27.55],[-76.26444444,27.83333333],[-74.83333333,27.83333333],[-73.2,25.0],[-69.11666666,25.0],[-68.49241666,25.0],[-67.65041666,21.23911111],[-69.15,19.65],[-70.5,20.41666666],[-71.66666666,20.41666666],[-73.0,20.41666666],[-73.33333333,20.0],[-75.16666666,22.0],[-78.0,24.0],[-79.0,24.66666666],[-79.0,26.45],[-78.88333333,27.0],[-77.0,27.0],[-84.99972222,24.0]]]}},{"type":"Feature","properties":{"id":"ZME","name":"MEMPHIS","label":"Memphis Center","altitude":"HIGH"},"geometry":{"type":"Polygon","coordinates":[[[-95.36666666,35.87083333],[-94.68333333,36.43333333],[-94.40833333,36.49166666],[-93.25,36.725],[-90.56666666,37.15],[-88.83333333,37.53333333],[-88.31666666,37.725],[-87.39722222,37.275],[-86.15,37.3],[-85.74583333,37.01388888],[-85.58333333,36.9],[-85.4,36.18333333],[-85.28333333,35.65],[-86.0,35.51666666],[-87.0,35.33333333],[-87.0,34.36666666],[-87.25,34.1],[-87.55,34.01666666],[-87.63333333,33.31666666],[-87.98611111,33.04305555],[-87.85,32.69722222],[-88.34722222,32.33055555],[-88.325,31.51666666],[-88.9,31.54722222],[-89.85,31.63055555],[-90.34583333,31.65],[-91.30833333,31.9125],[-91.68888888,32.28333333],[-91.9,33.00416666],[-93.15833333,33.95],[-93.54166666,34.03333333],[-94.53333333,34.53333333],[-94.78333333,34.69166666],[-95.0,35.06666666],[-95.0,35.38333333],[-95.0,35.65416666],[-95.36666666,35.87083333]]]}},{"type":"Feature","properties":{"id":"ZME","name":"MEMPHIS","label":"Memphis Center","altitude":"LOW"},"geometry":{"type":"Polygon","coordinates":[[[-95.6125,36.01666666],[-95.4,36.20416666],[-95.19583333,36.2875],[-94.68333333,36.43333333],[-94.40833333,36.49166666],[-93.25,36.725],[-90.56666666,37.15],[-88.83333333,37.53333333],[-88.31666666,37.725],[-87.39722222,37.275],[-86.15,37.3],[-85.74583333,37.01388888],[-85.58333333,36.9],[-85.4,36.18333333],[-85.23333333,35.41666666],[-85.48333333,34.85],[-85.93055555,34.81111111],[-86.075,34.63611111],[-86.175,34.3875],[-86.71333333,34.1],[-87.25,34.1],[-87.55,34.01666666],[-87.63333333,33.31666666],[-87.98611111,33.04305555],[-87.85,32.69722222],[-88.34722222,32.33055555],[-88.325,31.51666666],[-88.9,31.54722222],[-89.85,31.63055555],[-90.34583333,31.65],[-91.30833333,31.9125],[-91.68888888,32.28333333],[-91.9,33.00416666],[-93.15833333,33.95],[-93.54166666,34.03333333],[-94.53333333,34.53333333],[-94.78333333,34.69166666],[-95.0,35.06666666],[-95.0,35.38333333],[-95.0,35.65416666],[-95.6125,36.01666666]]]}},{"type":"Feature","properties":{"id":"ZMP","name":"MINNEAPOLIS","label":"Minneapolis Center","altitude":"HIGH"},"geometry":{"type":"Polygon","coordinates":[[[-103.16666666,49.0],[-103.0,49.0],[-102.5,49.0],[-102.0,49.0],[-101.5,49.0],[-101.0,49.0],[-100.5,49.0],[-100.0,49.0],[-99.5,49.0],[-99.0,49.0],[-98.5,49.0],[-98.0,49.0],[-97.5,49.0],[-97.0,49.0],[-96.5,49.0],[-96.0,49.0],[-95.16666666,49.0],[-93.5,49.0],[-90.1,48.10833333],[-90.01944444,48.02166666],[-89.91916666,47.94555555],[-89.80111111,47.88222222],[-89.66861111,47.83333333],[-89.52583333,47.80083333],[-89.37694444,47.785],[-89.22611111,47.78666666],[-89.07805555,47.80583333],[-88.93694444,47.84194444],[-88.80694444,47.89388888],[-88.775,47.90833333],[-87.0,47.08333333],[-85.63333333,46.75],[-84.53333333,46.38333333],[-84.35833333,46.25],[-83.58333333,45.81666666],[-82.5,45.33333333],[-82.16944444,43.85527777],[-84.96361111,43.58666666],[-87.16944444,43.69166666],[-87.54166666,43.96666666],[-88.46666666,44.1],[-88.75416666,44.15944444],[-89.07611111,44.225],[-89.5875,44.15416666],[-90.29166666,44.15416666],[-90.82916666,43.61805555],[-91.08333333,43.36666666],[-91.725,42.725],[-93.0,42.78333333],[-93.05,42.66666666],[-93.46666666,41.66666666],[-93.50833333,41.43333333],[-93.6,41.16666666],[-93.49166666,40.525],[-98.8,39.46666666],[-99.05833333,39.98333333],[-99.01666666,42.0],[-100.1,43.28888888],[-101.40833333,43.70833333],[-101.48333333,44.7],[-103.16666666,44.95833333],[-103.16666666,46.6],[-103.16666666,49.0]]]}},{"type":"Feature","properties":{"id":"ZMP","name":"MINNEAPOLIS","label":"Minneapolis Center","altitude":"LOW"},"geometry":{"type":"Polygon","coordinates":[[[-103.16666666,49.0],[-103.0,49.0],[-102.5,49.0],[-102.0,49.0],[-101.5,49.0],[-101.0,49.0],[-100.5,49.0],[-100.0,49.0],[-99.5,49.0],[-99.0,49.0],[-98.5,49.0],[-98.0,49.0],[-97.5,49.0],[-97.0,49.0],[-96.5,49.0],[-96.0,49.0],[-95.16666666,49.0],[-93.5,49.0],[-90.1,48.10833333],[-90.01944444,48.02166666],[-89.91916666,47.94555555],[-89.80111111,47.88222222],[-89.66861111,47.83333333],[-89.52583333,47.80083333],[-89.37694444,47.785],[-89.22611111,47.78666666],[-89.07805555,47.80583333],[-88.93694444,47.84194444],[-88.80694444,47.89388888],[-88.775,47.90833333],[-87.0,47.08333333],[-85.63333333,46.75],[-84.53333333,46.38333333],[-84.35833333,46.25],[-83.58333333,45.81666666],[-82.5,45.33333333],[-82.16944444,43.85527777],[-84.96361111,43.58666666],[-87.16944444,43.69166666],[-87.54166666,43.96666666],[-88.46666666,44.1],[-88.75416666,44.15944444],[-89.07611111,44.225],[-89.5875,44.15416666],[-90.29166666,44.15416666],[-90.82916666,43.61805555],[-91.08333333,43.36666666],[-91.725,42.725],[-93.0,42.78333333],[-93.05,42.66666666],[-93.46666666,41.66666666],[-93.50833333,41.43333333],[-93.6,41.16666666],[-93.49166666,40.525],[-98.8,39.46666666],[-99.05833333,39.98333333],[-99.01666666,42.0],[-100.1,43.28888888],[-101.40833333,43.70833333],[-101.48333333,44.7],[-103.16666666,44.95833333],[-103.16666666,46.6],[-103.16666666,49.0]]]}},{"type":"Feature","properties":{"id":"ZNY","name":"NEW YORK","label":"New York Center","altitude":"HIGH"},"geometry":{"type":"Polygon","coordinates":[[[-73.16666666,39.68333333],[-73.15,39.73333333],[-73.00833333,39.99444444],[-72.78194444,40.19861111],[-72.5,40.07222222],[-70.87944444,40.57666666],[-69.34166666,40.925],[-69.0,41.0],[-67.0,41.61666666],[-67.0,39.0],[-69.95,38.33333333],[-71.68333333,37.51666666],[-72.66666666,37.2275],[-72.66666666,35.09305555],[-73.57305555,34.48805555],[-73.95,34.23333333],[-76.81666666,32.2],[-77.0,32.26222222],[-76.77944444,32.96777777],[-75.68388888,34.60027777],[-75.19,35.30805555],[-74.93694444,35.49694444],[-74.59972222,36.78777777],[-74.59972222,37.08166666],[-73.98333333,38.54166666],[-73.84166666,38.76666666],[-73.43333333,39.33333333],[-73.16666666,39.68333333],[-73.72916666,39.93333333],[-73.69861111,40.23888888],[-74.68472222,39.98333333],[-74.78333333,40.10972222],[-75.32916666,40.06944444],[-75.625,39.86111111],[-75.65,39.85],[-76.34722222,39.39166666],[-76.85555555,39.385],[-77.35833333,39.51],[-77.35666666,39.78166666],[-77.61722222,39.77222222],[-77.84027777,39.85555555],[-77.87916666,40.55],[-78.12777777,40.85833333],[-77.85,41.25555555],[-77.54166666,41.67777777],[-77.23611111,42.175],[-76.80277777,42.60833333],[-76.01666666,42.28333333],[-75.34166666,41.98888888],[-75.05833333,41.86944444],[-74.90833333,41.80138888],[-74.80833333,41.75833333],[-74.76666666,41.73333333],[-74.44444444,41.4375],[-73.86666666,41.24583333],[-73.85972222,40.85833333],[-73.37777777,40.85833333],[-73.29166666,40.80138888],[-73.69861111,40.23888888],[-73.72916666,39.93333333],[-73.16666666,39.68333333]]]}},{"type":"Feature","properties":{"id":"ZNY","name":"NEW YORK","label":"New York Center","altitude":"LOW"},"geometry":{"type":"Polygon","coordinates":[[[-76.69722222,42.72777777],[-76.66666666,42.88333333],[-76.48333333,42.94166666],[-76.08888888,42.9375],[-76.01388888,42.8625],[-75.96944444,42.69583333],[-76.05277777,42.31194444],[-75.34166666,41.98888888],[-75.05833333,41.86944444],[-74.95833333,41.74166666],[-74.34583333,41.48333333],[-74.075,41.34166666],[-74.08472222,41.31944444],[-74.00611111,41.29444444],[-73.86666666,41.24583333],[-73.85972222,40.85833333],[-73.37777777,40.85833333],[-73.29166666,40.80138888],[-73.63611111,40.33194444],[-73.4,40.3875],[-73.25416666,40.40972222],[-73.23611111,40.39861111],[-72.98888888,40.29166666],[-72.5,40.07222222],[-70.87944444,40.57666666],[-69.34166666,40.925],[-69.0,41.0],[-67.0,41.61666666],[-67.0,39.0],[-69.95,38.33333333],[-71.68333333,37.51666666],[-72.66666666,37.2275],[-72.66666666,35.09305555],[-73.57305555,34.48805555],[-73.95,34.23333333],[-76.81666666,32.2],[-77.0,32.26222222],[-76.77944444,32.96777777],[-75.68388888,34.60027777],[-75.19,35.30805555],[-74.93694444,35.49694444],[-74.59972222,36.78777777],[-74.59972222,37.08166666],[-73.98333333,38.54166666],[-73.84166666,38.76666666],[-73.65833333,39.03472222],[-74.19444444,39.57916666],[-74.49861111,39.59305555],[-74.45555555,39.65583333],[-74.8,39.65277777],[-74.91111111,39.70972222],[-74.94,39.75166666],[-74.80416666,39.9],[-74.68472222,39.98333333],[-74.45277777,40.14444444],[-74.33333333,40.25],[-74.51527777,40.30833333],[-74.67638888,40.25833333],[-74.95694444,40.34166666],[-75.01666666,40.29027777],[-75.01638888,40.29],[-75.03666666,40.255],[-75.0575,40.23944444],[-75.07583333,40.23055555],[-75.09638888,40.22277777],[-75.11972222,40.2175],[-75.11833333,40.21666666],[-75.625,39.86111111],[-75.65,39.85],[-76.34722222,39.39166666],[-76.85555555,39.385],[-77.35833333,39.51],[-77.35666666,39.78166666],[-77.355,39.875],[-77.84027777,39.85555555],[-77.87916666,40.55],[-78.12777777,40.85833333],[-77.85,41.25555555],[-77.54166666,41.67777777],[-77.23611111,42.175],[-76.80277777,42.60833333],[-76.69722222,42.72777777]]]}},{"type":"Feature","properties":{"id":"ZOA","name":"OAKLAND","label":"Oakland Center","altitude":"HIGH"},"geometry":{"type":"Polygon","coordinates":[[[-126.9,40.98333333],[-125.33333333,40.21666666],[-123.83333333,40.21666666],[-123.53333333,40.3875],[-123.53333333,41.33333333],[-123.0,41.33333333],[-122.41666666,41.33333333],[-121.25,41.0],[-119.5,41.0],[-117.36666666,39.93333333],[-117.26666666,38.08333333],[-117.09472222,37.88333333],[-117.09472222,37.55],[-117.07583333,37.44166666],[-117.00833333,37.36666666],[-117.33333333,37.2],[-118.58333333,37.2],[-118.58333333,36.13333333],[-119.16666666,36.13333333],[-119.5,35.63333333],[-120.11666666,35.75],[-120.85,35.53333333],[-123.25,34.5],[-124.2,36.0],[-125.83333333,35.5],[-126.93333333,36.46194444],[-126.61583333,38.58055555],[-127.0,40.0],[-126.9,40.98333333]]]}},{"type":"Feature","properties":{"id":"ZOA","name":"OAKLAND","label":"Oakland Center","altitude":"LOW"},"geometry":{"type":"Polygon","coordinates":[[[-126.9,40.98333333],[-125.33333333,40.21666666],[-123.83333333,40.21666666],[-123.53333333,40.3875],[-123.53333333,41.33333333],[-123.0,41.33333333],[-122.41666666,41.33333333],[-121.25,41.0],[-119.5,41.0],[-117.36666666,39.93333333],[-117.26666666,38.08333333],[-117.09472222,37.88333333],[-117.09472222,37.55],[-117.07583333,37.44166666],[-117.00833333,37.36666666],[-117.33333333,37.2],[-118.58333333,37.2],[-118.58333333,36.13333333],[-119.16666666,36.13333333],[-119.5,35.63333333],[-120.11666666,35.75],[-120.85,35.53333333],[-123.25,34.5],[-124.2,36.0],[-125.83333333,35.5],[-126.93333333,36.46194444],[-126.61583333,38.58055555],[-127.0,40.0],[-126.9,40.98333333]]]}},{"type":"Feature","properties":{"id":"ZOA","name":"OAKLAND","label":"Oakland Center","altitude":"UNLIMITED"},"geometry":{"type":"Polygon","coordinates":[[[155.0,21.0],[151.0,21.0],[155.0,23.5275],[165.0,27.0],[161.08055555,27.0],[165.0,29.0],[161.08055555,27.0],[155.0,23.5275],[155.0,27.0],[-137.0,53.3675],[-135.0,52.71666666],[-133.75,51.0],[-128.0,48.33333333],[-127.925,48.16666666],[-130.5,47.5],[-131.16666666,47.58333333],[155.0,21.0]]]}},{"type":"Feature","properties":{"id":"ZOB","name":"CLEVELAND","label":"Cleveland Center","altitude":"HIGH"},"geometry":{"type":"Polygon","coordinates":[[[-82.46666666,42.87083333],[-82.46111111,42.91111111],[-82.40416666,42.95416666],[-82.41666666,43.01138888],[-82.11666666,43.6],[-82.16944444,43.85527777],[-84.96361111,43.58666666],[-85.0,43.5],[-85.0,42.0],[-84.76666666,41.85833333],[-84.71666666,41.28333333],[-84.7,40.95833333],[-84.7,40.90833333],[-83.74583333,40.78333333],[-83.65,40.7375],[-83.5,40.55833333],[-83.33333333,40.50833333],[-81.78333333,40.6],[-81.63333333,40.21666666],[-81.55,39.75],[-80.5,39.16666666],[-80.4,39.16666666],[-79.89444444,39.17361111],[-79.54305555,39.37083333],[-77.93333333,39.85],[-77.84027777,39.85555555],[-77.87916666,40.55],[-78.12777777,40.85833333],[-77.85,41.25555555],[-77.54166666,41.67777777],[-77.23611111,42.175],[-76.80277777,42.60833333],[-76.69722222,42.72777777],[-76.68916666,42.76861111],[-76.66666666,42.88333333],[-76.73333333,43.01666666],[-76.76388888,43.06666666],[-76.775,43.32916666],[-76.77833333,43.35444444],[-76.78055555,43.4],[-76.79666666,43.63111111],[-77.17666666,43.63222222],[-77.94194444,43.63416666],[-78.35,43.63333333],[-78.67777777,43.63333333],[-78.75,43.6],[-78.75,43.43333333],[-79.02444444,43.19166666],[-79.05833333,42.95],[-79.2,42.92916666],[-79.3375,42.90833333],[-79.75,42.85],[-79.84444444,42.83611111],[-80.26666666,42.81388888],[-80.89583333,42.77916666],[-81.22083333,42.74166666],[-81.82777777,42.80833333],[-81.84722222,42.81111111],[-81.97083333,42.82916666],[-82.27222222,42.85333333],[-82.40833333,42.86666666],[-82.46666666,42.87083333]]]}},{"type":"Feature","properties":{"id":"ZOB","name":"CLEVELAND","label":"Cleveland Center","altitude":"LOW"},"geometry":{"type":"Polygon","coordinates":[[[-85.0,43.5],[-84.96361111,43.58666666],[-82.16944444,43.85527777],[-82.125,43.68888888],[-82.11666666,43.6],[-82.35555555,43.13333333],[-82.41666666,43.01138888],[-82.40416666,42.95416666],[-82.46111111,42.91111111],[-82.46666666,42.87083333],[-82.40833333,42.86666666],[-82.27222222,42.85333333],[-81.97083333,42.82916666],[-81.84722222,42.81111111],[-81.82777777,42.80833333],[-81.22083333,42.74166666],[-80.89583333,42.77916666],[-80.26666666,42.81388888],[-79.84444444,42.83611111],[-79.75,42.85],[-79.3375,42.90833333],[-79.2,42.92916666],[-79.05833333,42.95],[-79.02444444,43.19166666],[-78.75,43.43333333],[-78.75,43.6],[-78.67777777,43.63333333],[-78.35,43.63333333],[-77.94194444,43.63416666],[-77.17666666,43.63222222],[-76.79666666,43.63111111],[-76.78055555,43.4],[-76.77833333,43.35444444],[-76.775,43.32916666],[-76.76388888,43.06666666],[-76.73333333,43.01666666],[-76.66666666,42.88333333],[-76.69722222,42.72777777],[-76.80277777,42.60833333],[-77.23611111,42.175],[-77.54166666,41.67777777],[-77.85,41.25555555],[-78.12777777,40.85833333],[-77.87916666,40.55],[-77.84027777,39.85555555],[-77.93333333,39.85],[-79.54305555,39.37083333],[-79.89444444,39.17361111],[-80.4,39.16666666],[-80.5,39.16666666],[-81.55,39.75],[-81.63333333,40.21666666],[-81.78333333,40.6],[-83.33333333,40.50833333],[-83.5,40.55833333],[-83.65,40.7375],[-83.74583333,40.78333333],[-84.7,40.90833333],[-84.7,40.95833333],[-84.71666666,41.28333333],[-85.10833333,41.38333333],[-85.0,41.85],[-85.0,43.5]]]}},{"type":"Feature","properties":{"id":"ZSE","name":"SEATTLE","label":"Seattle Center","altitude":"HIGH"},"geometry":{"type":"Polygon","coordinates":[[[-128.0,48.33333333],[-125.0,48.5],[-124.75,48.5],[-123.55,48.23333333],[-123.25833333,48.28333333],[-123.11666666,48.425],[-123.16666666,48.45833333],[-123.26666666,48.7],[-123.00833333,48.76666666],[-123.00833333,48.83333333],[-123.33333333,49.0],[-123.0,49.0],[-122.58333333,49.0],[-122.53333333,49.0],[-122.0,49.0],[-121.5,49.0],[-121.0,49.0],[-120.5,49.0],[-120.0,49.0],[-119.5,49.0],[-119.0,49.0],[-118.5,49.0],[-118.0,49.0],[-117.5,49.0],[-117.0,49.0],[-116.5,49.0],[-116.0,49.0],[-115.5,49.0],[-115.0,49.0],[-114.66666666,49.0],[-115.0,48.41666666],[-115.0,45.33333333],[-117.75,45.33333333],[-118.45,44.85],[-119.28333333,43.63333333],[-119.0,42.66666666],[-119.5,41.0],[-121.25,41.0],[-122.41666666,41.33333333],[-123.0,41.33333333],[-123.53333333,41.33333333],[-123.53333333,40.3875],[-123.83333333,40.21666666],[-125.33333333,40.21666666],[-126.9,40.98333333],[-126.5,45.0],[-128.0,48.33333333]]]}},{"type":"Feature","properties":{"id":"ZSE","name":"SEATTLE","label":"Seattle Center","altitude":"LOW"},"geometry":{"type":"Polygon","coordinates":[[[-128.0,48.33333333],[-125.0,48.5],[-124.75,48.5],[-123.55,48.23333333],[-123.25833333,48.28333333],[-123.11666666,48.425],[-123.16666666,48.45833333],[-123.26666666,48.7],[-123.00833333,48.76666666],[-123.00833333,48.83333333],[-123.33333333,49.0],[-122.91666666,49.0],[-122.66666666,49.0],[-122.55,49.0],[-122.0,49.0],[-121.5,49.0],[-121.0,49.0],[-120.5,49.0],[-120.0,49.0],[-119.5,49.0],[-119.0,49.0],[-118.5,49.0],[-118.0,49.0],[-117.5,49.0],[-117.0,49.0],[-116.55,49.0],[-116.5,49.0],[-116.0,49.0],[-115.5,49.0],[-115.0,49.0],[-114.66666666,49.0],[-115.0,48.41666666],[-115.0,45.33333333],[-117.75,45.33333333],[-118.45,44.85],[-119.28333333,43.63333333],[-119.0,42.66666666],[-119.5,41.0],[-121.25,41.0],[-122.41666666,41.33333333],[-123.0,41.33333333],[-123.53333333,41.33333333],[-123.53333333,40.3875],[-123.83333333,40.21666666],[-125.33333333,40.21666666],[-126.9,40.98333333],[-126.5,45.0],[-128.0,48.33333333]]]}},{"type":"Feature","properties":{"id":"ZTL","name":"ATLANTA","label":"Atlanta Center","altitude":"HIGH"},"geometry":{"type":"Polygon","coordinates":[[[-85.4,36.18333333],[-80.74583333,37.30416666],[-80.63333333,37.33194444],[-79.95,36.15416666],[-79.74444444,36.08888888],[-79.80416666,35.38333333],[-80.0,35.10833333],[-80.14722222,34.85555555],[-80.46888888,34.7475],[-81.33333333,34.39444444],[-81.57444444,34.29361111],[-81.80444444,33.98527777],[-81.85,33.88888888],[-81.84138888,32.90027777],[-81.93333333,32.5625],[-82.33333333,32.16666666],[-83.1125,31.68333333],[-84.1,31.68333333],[-85.30833333,31.53333333],[-85.58333333,31.7625],[-86.95,31.49166666],[-87.4,31.28055555],[-87.81666666,31.52083333],[-88.325,31.51666666],[-88.34722222,32.33055555],[-87.85,32.69722222],[-87.98611111,33.04305555],[-87.63333333,33.31666666],[-87.55,34.01666666],[-87.25,34.1],[-87.0,34.36666666],[-87.0,35.33333333],[-86.0,35.51666666],[-85.28333333,35.65],[-85.4,36.18333333]]]}},{"type":"Feature","properties":{"id":"ZTL","name":"ATLANTA","label":"Atlanta Center","altitude":"LOW"},"geometry":{"type":"Polygon","coordinates":[[[-85.4,36.18333333],[-80.74583333,37.30416666],[-80.63333333,37.33194444],[-79.95,36.15416666],[-79.74444444,36.08888888],[-79.80416666,35.38333333],[-80.0,35.10833333],[-80.14722222,34.85555555],[-80.46888888,34.7475],[-81.33333333,34.39444444],[-81.57444444,34.29361111],[-81.80444444,33.98527777],[-81.85,33.88888888],[-81.84138888,32.90027777],[-81.93333333,32.5625],[-82.2,32.29166666],[-82.64583333,32.44722222],[-83.49583333,32.125],[-83.8,32.09166666],[-86.95,31.49166666],[-87.4,31.28055555],[-87.81666666,31.52083333],[-88.325,31.51666666],[-88.34722222,32.33055555],[-87.85,32.69722222],[-87.98611111,33.04305555],[-87.63333333,33.31666666],[-87.55,34.01666666],[-87.25,34.1],[-86.71333333,34.1],[-86.175,34.3875],[-86.075,34.63611111],[-85.93055555,34.81111111],[-85.48333333,34.85],[-85.23333333,35.41666666],[-85.4,36.18333333]]]}},{"type":"Feature","properties":{"id":"ZWY","name":"NEW YORK OCEANIC FIR","label":"New York Oceanic FIR","altitude":"UNLIMITED"},"geometry":{"type":"Polygon","coordinates":[[[-40.0,44.5],[-67.0,41.86666666],[-40.0,30.0],[-60.0,43.6],[-40.0,27.0],[-56.05166666,44.44666666],[-40.0,22.3],[-53.0,45.0],[-45.0,18.0],[-51.0,45.0],[-61.5,18.0],[-40.0,45.0],[-61.9,20.0],[-40.0,30.0],[-64.0,22.0],[-40.0,27.0],[-65.13472222,22.09722222],[-40.0,22.3],[-66.74503888,22.00058055],[-45.0,18.0],[-67.65041666,21.23911111],[-61.5,18.0],[-68.49241666,25.0],[-61.9,20.0],[-69.11666666,25.0],[-64.0,22.0],[-73.2,25.0],[-65.13472222,22.09722222],[-74.83333333,27.83333333],[-66.74503888,22.00058055],[-76.26444444,27.83333333],[-67.65041666,21.23911111],[-77.0,30.0],[-68.49241666,25.0],[-77.0,32.25],[-69.11666666,25.0],[-76.81666666,32.2],[-73.2,25.0],[-73.95,34.23333333],[-74.83333333,27.83333333],[-73.57305555,34.48805555],[-76.26444444,27.83333333],[-72.66666666,35.09305555],[-77.0,30.0],[-72.66666666,37.2275],[-77.0,32.25],[-71.68333333,37.51666666],[-76.81666666,32.2],[-69.95,38.33333333],[-73.95,34.23333333],[-68.88333333,38.58333333],[-73.57305555,34.48805555],[-67.0,39.0],[-72.66666666,35.09305555],[-67.0,41.61666666],[-72.66666666,37.2275],[-61.20166666,42.38166666],[-71.68333333,37.51666666],[-57.86805555,43.07222222],[-69.95,38.33333333],[-54.88333333,43.62305555],[-68.88333333,38.58333333],[-50.0,44.5],[-67.0,39.0],[-40.0,44.5]]]}}]}